NORAD_CAT_ID,OBJECT_NAME,OBJECT_TYPE,EPOCH,MEAN_MOTION,ECCENTRICITY,INCLINATION,RA_OF_ASC_NODE,ARG_OF_PERICENTER,MEAN_ANOMALY,BSTAR,MEAN_MOTION_DOT,MEAN_MOTION_DDOT,TLE_LINE0,TLE_LINE1,TLE_LINE2,SEMIMAJOR_AXIS,PERIOD,APOGEE,PERIGEE,DECAYED
55648.0,STARLINK-5501,PAYLOAD,2024-04-07 09:31:50,14.98325499,0.0002977,70.0006,152.7036,270.6343,89.4475,2.3417e-05,1.86e-06,0.0,0 STARLINK-5501,1 55648U 23021W   24098.39711727  .00000186  00000-0  23417-4 0  9992,2 55648  70.0006 152.7036 0002977 270.6343  89.4475 14.98325499 63748,6950.207,96.107,574.141,570.003,0.0
55648.0,STARLINK-5501,PAYLOAD,2024-04-07 20:44:47,14.98327815,0.0002942,70.0005,151.5254,269.3299,90.7523,9.0662e-05,9.89e-06,0.0,0 STARLINK-5501,1 55648U 23021W   24098.86443757  .00000989  00000-0  90662-4 0  9996,2 55648  70.0005 151.5254 0002942 269.3299  90.7523 14.98327815 63814,6950.2,96.107,574.109,570.02,0.0
55648.0,STARLINK-5501,PAYLOAD,2024-04-08 04:45:27,14.98335626,0.0002967,69.9991,150.6833,268.1649,91.917,0.00017167,1.956e-05,0.0,0 STARLINK-5501,1 55648U 23021W   24099.19823257  .00001956  00000-0  17167-3 0  9993,2 55648  69.9991 150.6833 0002967 268.1649  91.9170 14.98335626 63563,6950.175,96.107,574.103,569.978,0.0
55648.0,STARLINK-5501,PAYLOAD,2024-04-08 09:33:51,14.98336048,0.0002986,69.9991,150.1782,268.2536,91.8281,0.00016471,1.873e-05,0.0,0 STARLINK-5501,1 55648U 23021W   24099.39851214  .00001873  00000-0  16471-3 0  9994,2 55648  69.9991 150.1782 0002986 268.2536  91.8281 14.98336048 63895,6950.174,96.107,574.115,569.964,0.0
55648.0,STARLINK-5501,PAYLOAD,2024-04-08 20:46:47,14.98335902,0.0003061,69.9988,148.9992,270.6834,89.3974,0.00018894,2.162e-05,0.0,0 STARLINK-5501,1 55648U 23021W   24099.86583140  .00002162  00000-0  18894-3 0  9999,2 55648  69.9988 148.9992 0003061 270.6834  89.3974 14.98335902 63969,6950.175,96.107,574.167,569.912,0.0
55648.0,STARLINK-5501,PAYLOAD,2024-04-09 04:47:28,14.98331466,0.0002988,69.9987,148.1575,269.9597,90.1219,0.00016948,1.93e-05,0.0,0 STARLINK-5501,1 55648U 23021W   24100.19963423  .00001930  00000-0  16948-3 0  9994,2 55648  69.9987 148.1575 0002988 269.9597  90.1219 14.98331466 63717,6950.188,96.107,574.13,569.977,0.0
55648.0,STARLINK-5501,PAYLOAD,2024-04-09 09:35:52,14.98331054,0.0003103,69.9986,147.6525,270.3652,89.7151,0.00016317,1.854e-05,0.0,0 STARLINK-5501,1 55648U 23021W   24100.39991467  .00001854  00000-0  16317-3 0  9990,2 55648  69.9986 147.6525 0003103 270.3652  89.7151 14.98331054 64042,6950.19,96.107,574.211,569.898,0.0
55648.0,STARLINK-5501,PAYLOAD,2024-04-09 20:48:49,14.98332762,0.0003164,69.9987,146.4747,269.5462,90.5334,0.00010178,1.122e-05,0.0,0 STARLINK-5501,1 55648U 23021W   24100.86723402  .00001122  00000-0  10178-3 0  9991,2 55648  69.9987 146.4747 0003164 269.5462  90.5334 14.98332762 64110,6950.184,96.107,574.248,569.85,0.0
55648.0,STARLINK-5501,PAYLOAD,2024-04-10 04:49:29,14.98327336,0.0003067,69.9988,145.6332,269.4804,90.6003,0.00010347,1.142e-05,0.0,0 STARLINK-5501,1 55648U 23021W   24101.20103747  .00001142  00000-0  10347-3 0  9994,2 55648  69.9988 145.6332 0003067 269.4804  90.6003 14.98327336 63869,6950.201,96.107,574.198,569.935,0.0
55648.0,STARLINK-5501,PAYLOAD,2024-04-10 09:37:53,14.98331793,0.0002944,69.999,145.1282,267.7185,92.3637,2.8809e-05,2.51e-06,0.0,0 STARLINK-5501,1 55648U 23021W   24101.40131491  .00000251  00000-0  28809-4 0  9996,2 55648  69.9990 145.1282 0002944 267.7185  92.3637 14.98331793 64198,6950.187,96.107,574.098,570.006,0.0
55648.0,STARLINK-5501,PAYLOAD,2024-04-11 04:51:30,14.98333489,0.0003031,69.9991,143.1089,270.4212,89.66,7.804e-05,8.38e-06,0.0,0 STARLINK-5501,1 55648U 23021W   24102.20243205  .00000838  00000-0  78040-4 0  9995,2 55648  69.9991 143.1089 0003031 270.4212  89.6600 14.98333489 64016,6950.182,96.107,574.154,569.941,0.0
55648.0,STARLINK-5501,PAYLOAD,2024-04-11 12:52:10,14.98329182,0.0002897,69.9988,142.2667,267.8409,92.2418,0.00023859,2.755e-05,0.0,0 STARLINK-5501,1 55648U 23021W   24102.53623223  .00002755  00000-0  23859-3 0  9990,2 55648  69.9988 142.2667 0002897 267.8409  92.2418 14.98329182 64361,6950.195,96.107,574.074,570.047,0.0
55648.0,STARLINK-5501,PAYLOAD,2024-04-11 19:16:42,14.98345275,0.0003054,69.999,141.5933,270.2889,89.792,-0.00014459,-1.818e-05,0.0,0 STARLINK-5501,1 55648U 23021W   24102.80326583 -.00001818  00000-0 -14459-3 0  9996,2 55648  69.9990 141.5933 0003054 270.2889  89.7920 14.98345275 64403,6950.146,96.106,574.133,569.888,0.0
55648.0,STARLINK-5501,PAYLOAD,2024-04-12 04:53:32,14.98298862,0.0002761,69.9987,140.5835,266.2314,93.8529,0.00075306,8.896e-05,0.0,0 STARLINK-5501,1 55648U 23021W   24103.20384339  .00008896  00000-0  75306-3 0  9993,2 55648  69.9987 140.5835 0002761 266.2314  93.8529 14.98298862 64164,6950.289,96.109,574.073,570.235,0.0
55648.0,STARLINK-5501,PAYLOAD,2024-04-12 11:18:03,14.98332168,0.0002782,69.9988,139.9099,263.1428,96.9414,0.00011586,1.29e-05,0.0,0 STARLINK-5501,1 55648U 23021W   24103.47087124  .00001290  00000-0  11586-3 0  9995,2 55648  69.9988 139.9099 0002782 263.1428  96.9414 14.98332168 64204,6950.186,96.107,573.985,570.118,0.0
55648.0,STARLINK-5501,PAYLOAD,2024-04-13 11:20:04,14.98334895,0.0003017,69.9985,137.3853,269.8282,90.2531,4.8923e-05,4.91e-06,0.0,0 STARLINK-5501,1 55648U 23021W   24104.47226940  .00000491  00000-0  48923-4 0  9995,2 55648  69.9985 137.3853 0003017 269.8282  90.2531 14.98334895 64356,6950.178,96.107,574.14,569.946,0.0
55648.0,STARLINK-5501,PAYLOAD,2024-04-14 04:57:33,14.98322651,0.0003048,69.9986,135.5336,266.1718,93.9092,0.00024415,2.821e-05,0.0,0 STARLINK-5501,1 55648U 23021W   24105.20663315  .00002821  00000-0  24415-3 0  9996,2 55648  69.9986 135.5336 0003048 266.1718  93.9092 14.98322651 64462,6950.216,96.107,574.199,569.962,0.0
55648.0,STARLINK-5501,PAYLOAD,2024-04-14 11:22:05,14.98330836,0.0002923,69.9987,134.8608,266.8161,93.2664,4.894e-05,4.91e-06,0.0,0 STARLINK-5501,1 55648U 23021W   24105.47367102  .00000491  00000-0  48940-4 0  9991,2 55648  69.9987 134.8608 0002923 266.8161  93.2664 14.98330836 64807,6950.19,96.107,574.087,570.024,0.0
55648.0,STARLINK-5501,PAYLOAD,2024-04-15 04:59:33,14.98332506,0.0002939,69.9986,133.0093,265.7676,94.3147,7.4444e-05,7.95e-06,0.0,0 STARLINK-5501,1 55648U 23021W   24106.20802944  .00000795  00000-0  74444-4 0  9996,2 55648  69.9986 133.0093 0002939 265.7676  94.3147 14.98332506 64614,6950.185,96.107,574.093,570.007,0.0
55648.0,STARLINK-5501,PAYLOAD,2024-04-15 11:24:06,14.98332135,0.0002942,69.9987,132.3361,266.1096,93.9726,6.4088e-05,6.72e-06,0.0,0 STARLINK-5501,1 55648U 23021W   24106.47506975  .00000672  00000-0  64088-4 0  9997,2 55648  69.9987 132.3361 0002942 266.1096  93.9726 14.98332135 64953,6950.186,96.107,574.096,570.007,0.0
55648.0,STARLINK-5501,PAYLOAD,2024-04-15 19:24:46,14.9833187,0.0002928,69.9986,131.4935,269.1969,90.8855,0.00011598,1.291e-05,0.0,0 STARLINK-5501,1 55648U 23021W   24106.80886923  .00001291  00000-0  11598-3 0  9993,2 55648  69.9986 131.4935 0002928 269.1969  90.8855 14.98331870 65006,6950.187,96.107,574.087,570.017,0.0
55648.0,STARLINK-5501,PAYLOAD,2024-04-16 05:01:34,14.98333915,0.0003064,69.9983,130.4832,269.4708,90.61,0.00010797,1.196e-05,0.0,0 STARLINK-5501,1 55648U 23021W   24107.20942804  .00001196  00000-0  10797-3 0  9993,2 55648  69.9983 130.4832 0003064 269.4708  90.6100 14.98333915 64769,6950.181,96.107,574.175,569.916,0.0
55648.0,STARLINK-5501,PAYLOAD,2024-04-16 11:26:06,14.98336326,0.0003076,69.9983,129.8102,270.0406,90.0401,0.00012924,1.45e-05,0.0,0 STARLINK-5501,1 55648U 23021W   24107.47646600  .00001450  00000-0  12924-3 0  9994,2 55648  69.9983 129.8102 0003076 270.0406  90.0401 14.98336326 65103,6950.173,96.107,574.176,569.9,0.0
55648.0,STARLINK-5501,PAYLOAD,2024-04-17 05:03:35,14.98337191,0.0003076,69.9982,127.9586,269.9148,90.1659,0.00012387,1.386e-05,0.0,0 STARLINK-5501,1 55648U 23021W   24108.21082475  .00001386  00000-0  12387-3 0  9992,2 55648  69.9982 127.9586 0003076 269.9148  90.1659 14.98337191 64912,6950.171,96.107,574.174,569.898,0.0
55648.0,STARLINK-5501,PAYLOAD,2024-04-17 11:28:07,14.98338942,0.0003062,69.9982,127.2852,270.0361,90.0447,0.00013539,1.523e-05,0.0,0 STARLINK-5501,1 55648U 23021W   24108.47786210  .00001523  00000-0  13539-3 0  9991,2 55648  69.9982 127.2852 0003062 270.0361  90.0447 14.98338942 65253,6950.165,96.106,574.158,569.902,0.0
55648.0,STARLINK-5501,PAYLOAD,2024-04-18 03:29:28,14.98327862,0.0002922,69.9984,125.6018,270.8599,89.2225,-1.1012e-05,-2.24e-06,0.0,0 STARLINK-5501,1 55648U 23021W   24109.14547195 -.00000224  00000-0 -11012-4 0  9997,2 55648  69.9984 125.6018 0002922 270.8599  89.2225 14.98327862 65057,6950.2,96.107,574.095,570.034,0.0
55648.0,STARLINK-5501,PAYLOAD,2024-04-18 11:30:09,14.98325894,0.0002903,69.9984,124.7606,270.059,90.0236,-2.1547e-05,-3.5e-06,0.0,0 STARLINK-5501,1 55648U 23021W   24109.47927354 -.00000350  00000-0 -21547-4 0  9996,2 55648  69.9984 124.7606 0002903 270.0590  90.0236 14.98325894 65406,6950.206,96.107,574.088,570.053,0.0
55648.0,STARLINK-5501,PAYLOAD,2024-04-19 05:07:38,14.98325539,0.0002776,69.9986,122.9087,265.6799,94.4043,-4.152e-05,-5.88e-06,0.0,0 STARLINK-5501,1 55648U 23021W   24110.21363609 -.00000588  00000-0 -41520-4 0  9993,2 55648  69.9986 122.9087 0002776 265.6799  94.4043 14.98325539 65219,6950.207,96.107,574.001,570.142,0.0
55648.0,STARLINK-5501,PAYLOAD,2024-04-19 11:32:10,14.98324297,0.000284,69.9985,122.2352,269.9394,90.144,-5.6847e-05,-7.71e-06,0.0,0 STARLINK-5501,1 55648U 23021W   24110.48067842 -.00000771  00000-0 -56847-4 0  9994,2 55648  69.9985 122.2352 0002840 269.9394  90.1440 14.98324297 65557,6950.211,96.107,574.049,570.102,0.0
55648.0,STARLINK-5501,PAYLOAD,2024-04-20 05:09:38,14.98328779,0.0003064,69.9981,120.3836,273.4306,86.6502,0.00013244,1.488e-05,0.0,0 STARLINK-5501,1 55648U 23021W   24111.21503248  .00001488  00000-0  13244-3 0  9998,2 55648  69.9981 120.3836 0003064 273.4306  86.6502 14.98328779 65368,6950.197,96.107,574.191,569.932,0.0
